{
 "type": "FeatureCollection",
 "features": [
  {
   "type": "Feature",
   "geometry": {
    "type": "Point",
    "coordinates": [
     -125.2815,
     48.808292
    ]
   },
   "properties": {
    "key": "pinnacle",
    "name": "Folger Pinnacle",
    "group": "folger",
    "depth_m": 25.0,
    "water_depth_m": null,
    "record_start": "2011-02-03",
    "record_end": "2026-08-11",
    "climatology_png": "contributor_folders/Dwight/climatology/pinnacle_climatology.png",
    "source": "data/folger/FolgerPassage_FolgerPinnacle_variables_SeaWaterTemperature_20110203T170000Z_20260811T180000Z-NaN_clean_avg1hour.nc"
   }
  },
  {
   "type": "Feature",
   "geometry": {
    "type": "Point",
    "coordinates": [
     -125.280955,
     48.813797
    ]
   },
   "properties": {
    "key": "deep",
    "name": "Folger Deep",
    "group": "folger",
    "depth_m": 98.0,
    "water_depth_m": null,
    "record_start": "2016-01-01",
    "record_end": "2026-07-18",
    "climatology_png": "contributor_folders/Dwight/climatology/deep_climatology.png",
    "source": "data/folger/FolgerPassage_FolgerDeep_variables_SeaWaterTemperature_20160101T000000Z_20260718T050000Z-NaN_clean_avg1hour.csv"
   }
  },
  {
   "type": "Feature",
   "geometry": {
    "type": "Point",
    "coordinates": [
     -126.174493,
     48.427356
    ]
   },
   "properties": {
    "key": "upperslope",
    "name": "Barkley Upper Slope",
    "group": "barkley",
    "depth_m": 398.048,
    "water_depth_m": null,
    "record_start": "2009-08-01",
    "record_end": "2026-08-26",
    "climatology_png": "contributor_folders/Dwight/climatology/upperslope_climatology.png",
    "source": "data/barkley/BarkleyCanyon_BarkleyUpperSlope_variables_20090801T210000Z_20260826T190000Z-NaN_clean_MinMaxAvg1hour.nc"
   }
  },
  {
   "type": "Feature",
   "geometry": {
    "type": "Point",
    "coordinates": [
     -126.157755,
     48.345617
    ]
   },
   "properties": {
    "key": "node",
    "name": "Barkley Node",
    "group": "barkley",
    "depth_m": 643.25,
    "water_depth_m": null,
    "record_start": "2018-06-22",
    "record_end": "2026-08-26",
    "climatology_png": "contributor_folders/Dwight/climatology/node_climatology.png",
    "source": "data/barkley/BarkleyCanyon_BarkleyNode_variables_20180622T020000Z_20260826T220000Z-NaN_clean_MinMaxAvg1hour.nc"
   }
  },
  {
   "type": "Feature",
   "geometry": {
    "type": "Point",
    "coordinates": [
     -126.06584,
     48.312076
    ]
   },
   "properties": {
    "key": "hydrates",
    "name": "Barkley Canyon Hydrates",
    "group": "barkley",
    "depth_m": 871.0,
    "water_depth_m": null,
    "record_start": "2013-05-16",
    "record_end": "2026-08-26",
    "climatology_png": "contributor_folders/Dwight/climatology/hydrates_climatology.png",
    "source": "data/barkley/BarkleyCanyon_BarkleyCanyonHydrates_variables_20130516T220000Z_20260826T220000Z-NaN_clean_MinMaxAvg1hour.nc"
   }
  },
  {
   "type": "Feature",
   "geometry": {
    "type": "Point",
    "coordinates": [
     -126.058022,
     48.314925
    ]
   },
   "properties": {
    "key": "mideast",
    "name": "Barkley Canyon Mid-East",
    "group": "barkley",
    "depth_m": 899.5,
    "water_depth_m": null,
    "record_start": "2009-09-15",
    "record_end": "2026-07-28",
    "climatology_png": "contributor_folders/Dwight/climatology/mideast_climatology.png",
    "source": "data/barkley/BarkleyCanyon_BarkleyCanyonMid-East_variables_SeaWaterTemperature_20090915T190000Z_20260728T000000Z-NaN_clean_MinMaxAvg1hour.csv"
   }
  },
  {
   "type": "Feature",
   "geometry": {
    "type": "Point",
    "coordinates": [
     -126.050533,
     48.316642
    ]
   },
   "properties": {
    "key": "axis",
    "name": "Barkley Canyon Axis",
    "group": "barkley",
    "depth_m": 983.3817,
    "water_depth_m": null,
    "record_start": "2010-05-18",
    "record_end": "2026-08-26",
    "climatology_png": "contributor_folders/Dwight/climatology/axis_climatology.png",
    "source": "data/barkley/BarkleyCanyon_BarkleyCanyonAxis_variables_20100518T210000Z_20260826T220000Z-NaN_clean_MinMaxAvg1hour.nc"
   }
  },
  {
   "type": "Feature",
   "geometry": {
    "type": "Point",
    "coordinates": [
     -126.0,
     48.83
    ]
   },
   "properties": {
    "key": "laperusebank",
    "name": "La Perouse Bank (C46206)",
    "group": "buoy",
    "depth_m": null,
    "water_depth_m": 72.0,
    "record_start": "1988-11-22",
    "record_end": "2022-04-17",
    "climatology_png": "contributor_folders/Dwight/climatology/laperusebank_climatology.png",
    "source": "data/buoys/LaPeruseBank_SeaSurfaceTemperature_1988_2022.csv"
   }
  }
 ]
}
