{"type":"FeatureCollection","features":[{"type":"Feature","geometry":{"type":"Point","coordinates":[-125.2750015258789,48.82500076293945]},"properties":{"id":"folger-passage","name":"Folger Passage","stations":[{"name":"Folger Deep","lat":48.81376,"lon":-125.28078,"depth_m":96.5},{"name":"Folger Pinnacle","lat":48.80829,"lon":-125.2815,"depth_m":23.0}],"cell":{"lat":48.82500076293945,"lon":-125.2750015258789,"lat_range":[48.80000114440918,48.85000038146973],"lon_range":[-125.29999923706055,-125.25]},"daily":[{"date":"2019-07-22","sst_C":16.06},{"date":"2019-07-29","sst_C":16.55},{"date":"2019-08-05","sst_C":16.74},{"date":"2019-08-12","sst_C":16.18},{"date":"2019-08-19","sst_C":15.46},{"date":"2019-08-26","sst_C":15.88},{"date":"2019-09-02","sst_C":15.39},{"date":"2019-09-09","sst_C":16.31},{"date":"2019-09-16","sst_C":15.22},{"date":"2019-09-23","sst_C":16.41},{"date":"2019-09-30","sst_C":13.42},{"date":"2019-10-07","sst_C":12.55},{"date":"2019-10-14","sst_C":11.24},{"date":"2019-10-21","sst_C":11.6},{"date":"2019-10-28","sst_C":10.84},{"date":"2019-11-04","sst_C":9.34},{"date":"2019-11-11","sst_C":9.59},{"date":"2019-11-18","sst_C":10.06},{"date":"2019-11-25","sst_C":9.09},{"date":"2019-12-02","sst_C":8.58},{"date":"2019-12-09","sst_C":8.56},{"date":"2019-12-16","sst_C":8.54},{"date":"2019-12-23","sst_C":8.47},{"date":"2019-12-30","sst_C":8.84},{"date":"2020-01-06","sst_C":8.35},{"date":"2020-01-13","sst_C":8.22},{"date":"2020-01-20","sst_C":7.83},{"date":"2020-01-27","sst_C":8.47},{"date":"2020-02-03","sst_C":8.1},{"date":"2020-02-10","sst_C":8.17},{"date":"2020-02-17","sst_C":7.89},{"date":"2020-02-24","sst_C":7.98},{"date":"2020-03-02","sst_C":7.98},{"date":"2020-03-09","sst_C":7.69},{"date":"2020-03-16","sst_C":7.91},{"date":"2020-03-23","sst_C":8.5},{"date":"2020-03-30","sst_C":8.53},{"date":"2020-04-06","sst_C":8.77},{"date":"2020-04-13","sst_C":9.98},{"date":"2020-04-20","sst_C":11.06},{"date":"2020-04-27","sst_C":10.42},{"date":"2020-05-04","sst_C":10.93},{"date":"2020-05-11","sst_C":12.96},{"date":"2020-05-18","sst_C":13.26},{"date":"2020-05-25","sst_C":13.1},{"date":"2020-06-01","sst_C":12.86},{"date":"2020-06-08","sst_C":12.97},{"date":"2020-06-16","sst_C":14.14},{"date":"2020-06-23","sst_C":14.1},{"date":"2020-06-30","sst_C":14.75},{"date":"2020-07-07","sst_C":14.6},{"date":"2020-07-14","sst_C":14.85},{"date":"2020-07-21","sst_C":15.91},{"date":"2020-07-29","sst_C":15.07},{"date":"2020-08-05","sst_C":15.58},{"date":"2020-08-12","sst_C":15.2},{"date":"2020-08-19","sst_C":16.96},{"date":"2020-08-26","sst_C":15.97},{"date":"2020-09-02","sst_C":15.87},{"date":"2020-09-09","sst_C":15.86},{"date":"2020-09-16","sst_C":15.0},{"date":"2020-09-23","sst_C":14.18},{"date":"2020-09-30","sst_C":14.64},{"date":"2020-10-07","sst_C":14.57},{"date":"2020-10-14","sst_C":13.01},{"date":"2020-10-21","sst_C":12.12},{"date":"2020-10-28","sst_C":11.2},{"date":"2020-11-04","sst_C":10.54},{"date":"2020-11-11","sst_C":10.3},{"date":"2020-11-18","sst_C":10.19},{"date":"2020-11-25","sst_C":10.03},{"date":"2020-12-02","sst_C":9.43},{"date":"2020-12-09","sst_C":8.96},{"date":"2020-12-16","sst_C":8.78},{"date":"2020-12-23","sst_C":8.62},{"date":"2020-12-30","sst_C":8.56},{"date":"2021-01-06","sst_C":8.99},{"date":"2021-01-13","sst_C":8.83},{"date":"2021-01-20","sst_C":8.46},{"date":"2021-01-27","sst_C":8.41},{"date":"2021-02-03","sst_C":8.23},{"date":"2021-02-10","sst_C":7.82},{"date":"2021-02-17","sst_C":7.52},{"date":"2021-02-24","sst_C":7.64},{"date":"2021-03-03","sst_C":7.73},{"date":"2021-03-10","sst_C":7.87},{"date":"2021-03-17","sst_C":8.0},{"date":"2021-03-24","sst_C":8.22},{"date":"2021-03-31","sst_C":8.64},{"date":"2021-04-07","sst_C":8.95},{"date":"2021-04-14","sst_C":9.74},{"date":"2021-04-21","sst_C":11.59},{"date":"2021-04-28","sst_C":11.52},{"date":"2021-05-05","sst_C":11.58},{"date":"2021-05-12","sst_C":11.64},{"date":"2021-05-19","sst_C":11.78},{"date":"2021-05-26","sst_C":12.44},{"date":"2021-06-02","sst_C":13.72},{"date":"2021-06-09","sst_C":13.05},{"date":"2021-06-16","sst_C":13.54},{"date":"2021-06-23","sst_C":15.45},{"date":"2021-06-30","sst_C":15.17},{"date":"2021-07-07","sst_C":14.87},{"date":"2021-07-14","sst_C":13.89},{"date":"2021-07-21","sst_C":15.05},{"date":"2021-07-29","sst_C":15.59},{"date":"2021-08-05","sst_C":15.73},{"date":"2021-08-12","sst_C":15.36},{"date":"2021-08-19","sst_C":15.54},{"date":"2021-08-26","sst_C":14.58},{"date":"2021-09-02","sst_C":14.37},{"date":"2021-09-09","sst_C":14.51},{"date":"2021-09-16","sst_C":13.53},{"date":"2021-09-23","sst_C":13.19},{"date":"2021-09-30","sst_C":12.21},{"date":"2021-10-07","sst_C":12.05},{"date":"2021-10-14","sst_C":10.82},{"date":"2021-10-21","sst_C":11.59},{"date":"2021-10-28","sst_C":11.44},{"date":"2021-11-04","sst_C":11.22},{"date":"2021-11-12","sst_C":11.38},{"date":"2021-11-20","sst_C":10.29},{"date":"2021-11-27","sst_C":9.69},{"date":"2021-12-04","sst_C":9.52},{"date":"2021-12-11","sst_C":9.01},{"date":"2021-12-18","sst_C":9.02},{"date":"2021-12-25","sst_C":8.89},{"date":"2022-01-01","sst_C":8.02},{"date":"2022-01-08","sst_C":7.77},{"date":"2022-01-15","sst_C":7.84},{"date":"2022-01-23","sst_C":7.66},{"date":"2022-01-30","sst_C":7.2},{"date":"2022-02-06","sst_C":7.6},{"date":"2022-02-13","sst_C":7.75},{"date":"2022-02-20","sst_C":7.89},{"date":"2022-02-27","sst_C":7.51},{"date":"2022-03-06","sst_C":8.18},{"date":"2022-03-13","sst_C":8.05},{"date":"2022-03-20","sst_C":8.04},{"date":"2022-03-27","sst_C":8.5},{"date":"2022-04-03","sst_C":8.94},{"date":"2022-04-10","sst_C":9.11},{"date":"2022-04-17","sst_C":8.72},{"date":"2022-04-24","sst_C":8.81},{"date":"2022-05-01","sst_C":10.3},{"date":"2022-05-08","sst_C":10.61},{"date":"2022-05-15","sst_C":10.8},{"date":"2022-05-22","sst_C":12.0},{"date":"2022-05-30","sst_C":11.59},{"date":"2022-06-07","sst_C":12.16},{"date":"2022-06-14","sst_C":12.94},{"date":"2022-06-21","sst_C":13.21},{"date":"2022-06-28","sst_C":14.27},{"date":"2022-07-05","sst_C":14.2},{"date":"2022-07-12","sst_C":15.43},{"date":"2022-07-19","sst_C":14.05},{"date":"2022-07-29","sst_C":17.13},{"date":"2022-08-05","sst_C":15.05},{"date":"2022-08-12","sst_C":16.03},{"date":"2022-08-19","sst_C":17.34},{"date":"2022-08-26","sst_C":16.46},{"date":"2022-09-04","sst_C":15.0},{"date":"2022-09-11","sst_C":14.21},{"date":"2022-09-18","sst_C":13.81},{"date":"2022-09-26","sst_C":13.34},{"date":"2022-10-03","sst_C":13.2},{"date":"2022-10-11","sst_C":12.45},{"date":"2022-10-18","sst_C":11.97},{"date":"2022-10-25","sst_C":10.44},{"date":"2022-11-02","sst_C":10.0},{"date":"2022-11-09","sst_C":9.3},{"date":"2022-11-16","sst_C":8.8},{"date":"2022-11-23","sst_C":8.41},{"date":"2022-11-30","sst_C":8.43},{"date":"2022-12-07","sst_C":8.07},{"date":"2022-12-14","sst_C":8.21},{"date":"2022-12-21","sst_C":7.75},{"date":"2022-12-29","sst_C":7.44},{"date":"2023-01-05","sst_C":7.51},{"date":"2023-01-12","sst_C":7.98},{"date":"2023-01-19","sst_C":8.12},{"date":"2023-01-26","sst_C":7.11},{"date":"2023-02-02","sst_C":7.49},{"date":"2023-02-09","sst_C":7.76},{"date":"2023-02-16","sst_C":7.35},{"date":"2023-02-23","sst_C":8.0},{"date":"2023-03-02","sst_C":7.4},{"date":"2023-03-09","sst_C":7.36},{"date":"2023-03-16","sst_C":7.04},{"date":"2023-03-23","sst_C":8.13},{"date":"2023-03-30","sst_C":8.2},{"date":"2023-04-06","sst_C":8.32},{"date":"2023-04-13","sst_C":8.79},{"date":"2023-04-20","sst_C":8.79},{"date":"2023-04-27","sst_C":10.55},{"date":"2023-05-04","sst_C":11.16},{"date":"2023-05-11","sst_C":11.75},{"date":"2023-05-18","sst_C":13.31},{"date":"2023-05-25","sst_C":13.29},{"date":"2023-06-01","sst_C":12.38},{"date":"2023-06-08","sst_C":13.32},{"date":"2023-06-15","sst_C":13.71},{"date":"2023-06-22","sst_C":13.32},{"date":"2023-06-29","sst_C":13.43},{"date":"2023-07-06","sst_C":14.53},{"date":"2023-07-13","sst_C":14.96},{"date":"2023-07-20","sst_C":14.77},{"date":"2023-07-29","sst_C":15.98},{"date":"2023-08-05","sst_C":15.86},{"date":"2023-08-12","sst_C":15.8},{"date":"2023-08-19","sst_C":15.33},{"date":"2023-08-26","sst_C":15.38},{"date":"2023-09-02","sst_C":15.21},{"date":"2023-09-09","sst_C":14.84},{"date":"2023-09-16","sst_C":14.54},{"date":"2023-09-23","sst_C":13.13},{"date":"2023-09-30","sst_C":12.82},{"date":"2023-10-07","sst_C":13.88},{"date":"2023-10-14","sst_C":13.51},{"date":"2023-10-21","sst_C":13.62},{"date":"2023-10-28","sst_C":12.06},{"date":"2023-11-04","sst_C":11.41},{"date":"2023-11-11","sst_C":11.81},{"date":"2023-11-18","sst_C":11.18},{"date":"2023-11-25","sst_C":10.35},{"date":"2023-12-02","sst_C":10.12},{"date":"2023-12-09","sst_C":9.7},{"date":"2023-12-16","sst_C":9.54},{"date":"2023-12-23","sst_C":9.44},{"date":"2023-12-30","sst_C":9.88},{"date":"2024-01-06","sst_C":9.22},{"date":"2024-01-13","sst_C":8.93},{"date":"2024-01-20","sst_C":8.48},{"date":"2024-01-27","sst_C":8.13},{"date":"2024-02-03","sst_C":8.93},{"date":"2024-02-10","sst_C":8.61},{"date":"2024-02-17","sst_C":8.65},{"date":"2024-02-24","sst_C":8.72},{"date":"2024-03-02","sst_C":8.22},{"date":"2024-03-09","sst_C":7.96},{"date":"2024-03-16","sst_C":8.58},{"date":"2024-03-23","sst_C":8.95},{"date":"2024-03-30","sst_C":9.71},{"date":"2024-04-06","sst_C":9.97},{"date":"2024-04-13","sst_C":10.18},{"date":"2024-04-20","sst_C":11.09},{"date":"2024-04-27","sst_C":10.88},{"date":"2024-05-04","sst_C":11.29},{"date":"2024-05-11","sst_C":12.25},{"date":"2024-05-18","sst_C":11.41},{"date":"2024-05-25","sst_C":11.7},{"date":"2024-06-01","sst_C":12.02},{"date":"2024-06-08","sst_C":13.81},{"date":"2024-06-15","sst_C":12.82},{"date":"2024-06-22","sst_C":14.51},{"date":"2024-06-29","sst_C":13.68},{"date":"2024-07-06","sst_C":15.3},{"date":"2024-07-13","sst_C":15.11},{"date":"2024-07-20","sst_C":15.1},{"date":"2024-07-29","sst_C":15.13},{"date":"2024-08-05","sst_C":15.35},{"date":"2024-08-12","sst_C":15.87},{"date":"2024-08-19","sst_C":16.29},{"date":"2024-08-26","sst_C":14.79},{"date":"2024-09-02","sst_C":15.9},{"date":"2024-09-09","sst_C":15.47},{"date":"2024-09-16","sst_C":13.67},{"date":"2024-09-23","sst_C":13.47},{"date":"2024-09-30","sst_C":12.05},{"date":"2024-10-07","sst_C":12.02},{"date":"2024-10-14","sst_C":11.39},{"date":"2024-10-21","sst_C":11.12},{"date":"2024-10-28","sst_C":11.09},{"date":"2024-11-04","sst_C":10.97},{"date":"2024-11-11","sst_C":10.63},{"date":"2024-11-18","sst_C":10.2},{"date":"2024-11-25","sst_C":10.1},{"date":"2024-12-02","sst_C":9.4},{"date":"2024-12-09","sst_C":9.34},{"date":"2024-12-16","sst_C":8.93},{"date":"2024-12-23","sst_C":9.37},{"date":"2024-12-30","sst_C":8.97},{"date":"2025-01-06","sst_C":8.78},{"date":"2025-01-13","sst_C":8.61},{"date":"2025-01-20","sst_C":8.16},{"date":"2025-01-27","sst_C":8.04},{"date":"2025-02-08","sst_C":7.86},{"date":"2025-02-15","sst_C":7.5},{"date":"2025-02-22","sst_C":7.75},{"date":"2025-03-01","sst_C":8.38},{"date":"2025-03-08","sst_C":8.38},{"date":"2025-03-15","sst_C":8.44},{"date":"2025-03-22","sst_C":8.15},{"date":"2025-03-29","sst_C":9.14},{"date":"2025-04-05","sst_C":10.46},{"date":"2025-04-12","sst_C":9.88},{"date":"2025-04-19","sst_C":10.98},{"date":"2025-04-26","sst_C":11.77},{"date":"2025-05-03","sst_C":11.1},{"date":"2025-05-10","sst_C":11.49},{"date":"2025-05-17","sst_C":11.52},{"date":"2025-05-24","sst_C":12.57},{"date":"2025-05-31","sst_C":12.44},{"date":"2025-06-07","sst_C":13.55},{"date":"2025-06-14","sst_C":12.7},{"date":"2025-06-21","sst_C":13.79},{"date":"2025-06-28","sst_C":13.7},{"date":"2025-07-05","sst_C":13.46},{"date":"2025-07-12","sst_C":14.55},{"date":"2025-07-19","sst_C":14.83},{"date":"2025-07-29","sst_C":14.48},{"date":"2025-08-05","sst_C":15.41},{"date":"2025-08-12","sst_C":16.79},{"date":"2025-08-19","sst_C":15.44},{"date":"2025-08-26","sst_C":15.94},{"date":"2025-09-02","sst_C":16.55},{"date":"2025-09-09","sst_C":15.22},{"date":"2025-09-16","sst_C":14.25},{"date":"2025-09-23","sst_C":13.54},{"date":"2025-09-30","sst_C":12.43},{"date":"2025-10-07","sst_C":13.24},{"date":"2025-10-14","sst_C":11.6},{"date":"2025-10-21","sst_C":11.04},{"date":"2025-10-28","sst_C":11.05},{"date":"2025-11-04","sst_C":11.21},{"date":"2025-11-11","sst_C":10.71},{"date":"2025-11-18","sst_C":10.61},{"date":"2025-11-25","sst_C":10.11},{"date":"2025-12-02","sst_C":9.95},{"date":"2025-12-09","sst_C":9.85},{"date":"2025-12-16","sst_C":10.35},{"date":"2025-12-23","sst_C":10.09},{"date":"2025-12-30","sst_C":9.3},{"date":"2026-01-06","sst_C":9.1},{"date":"2026-01-13","sst_C":9.13},{"date":"2026-01-20","sst_C":8.2},{"date":"2026-01-27","sst_C":8.17},{"date":"2026-02-03","sst_C":8.18},{"date":"2026-02-10","sst_C":8.76},{"date":"2026-02-17","sst_C":8.13},{"date":"2026-02-24","sst_C":8.43},{"date":"2026-03-03","sst_C":8.59},{"date":"2026-03-10","sst_C":8.95},{"date":"2026-03-17","sst_C":8.83},{"date":"2026-03-24","sst_C":8.72},{"date":"2026-03-31","sst_C":9.0},{"date":"2026-04-07","sst_C":9.8},{"date":"2026-04-14","sst_C":10.35},{"date":"2026-04-21","sst_C":10.64},{"date":"2026-04-28","sst_C":11.92},{"date":"2026-05-05","sst_C":14.01},{"date":"2026-05-12","sst_C":13.1},{"date":"2026-05-19","sst_C":12.4},{"date":"2026-05-26","sst_C":12.08},{"date":"2026-06-02","sst_C":12.91},{"date":"2026-06-09","sst_C":12.67},{"date":"2026-06-16","sst_C":13.91},{"date":"2026-06-23","sst_C":14.18},{"date":"2026-06-30","sst_C":13.53},{"date":"2026-07-07","sst_C":14.0},{"date":"2026-07-14","sst_C":14.33},{"date":"2026-07-21","sst_C":14.05},{"date":"2026-07-29","sst_C":13.71},{"date":"2026-08-05","sst_C":16.26},{"date":"2026-08-12","sst_C":15.67},{"date":"2026-08-19","sst_C":15.25},{"date":"2026-08-20","sst_C":15.52},{"date":"2026-08-21","sst_C":15.93},{"date":"2026-08-22","sst_C":16.11},{"date":"2026-08-23","sst_C":15.68},{"date":"2026-08-24","sst_C":15.68},{"date":"2026-08-25","sst_C":16.39},{"date":"2026-08-26","sst_C":15.55}],"monthly":[{"month":"2019-07","mean_C":null,"n":2,"ok":false,"clim_C":14.83,"anom_C":null,"partial":false},{"month":"2019-08","mean_C":16.06,"n":4,"ok":true,"clim_C":15.8,"anom_C":0.27,"partial":false},{"month":"2019-09","mean_C":15.35,"n":5,"ok":true,"clim_C":14.39,"anom_C":0.96,"partial":false},{"month":"2019-10","mean_C":11.56,"n":4,"ok":true,"clim_C":12.03,"anom_C":-0.47,"partial":false},{"month":"2019-11","mean_C":9.52,"n":4,"ok":true,"clim_C":10.25,"anom_C":-0.73,"partial":false},{"month":"2019-12","mean_C":8.6,"n":5,"ok":true,"clim_C":9.04,"anom_C":-0.44,"partial":false},{"month":"2020-01","mean_C":8.22,"n":4,"ok":true,"clim_C":8.29,"anom_C":-0.07,"partial":false},{"month":"2020-02","mean_C":8.03,"n":4,"ok":true,"clim_C":8.0,"anom_C":0.04,"partial":false},{"month":"2020-03","mean_C":8.12,"n":5,"ok":true,"clim_C":8.29,"anom_C":-0.17,"partial":false},{"month":"2020-04","mean_C":10.06,"n":4,"ok":true,"clim_C":10.07,"anom_C":-0.01,"partial":false},{"month":"2020-05","mean_C":12.56,"n":4,"ok":true,"clim_C":12.03,"anom_C":0.53,"partial":false},{"month":"2020-06","mean_C":13.76,"n":5,"ok":true,"clim_C":13.51,"anom_C":0.25,"partial":false},{"month":"2020-07","mean_C":15.25,"n":5,"ok":true,"clim_C":14.83,"anom_C":0.43,"partial":false},{"month":"2020-08","mean_C":15.93,"n":4,"ok":true,"clim_C":15.8,"anom_C":0.13,"partial":false},{"month":"2020-09","mean_C":15.11,"n":5,"ok":true,"clim_C":14.39,"anom_C":0.72,"partial":false},{"month":"2020-10","mean_C":12.72,"n":4,"ok":true,"clim_C":12.03,"anom_C":0.7,"partial":false},{"month":"2020-11","mean_C":10.26,"n":4,"ok":true,"clim_C":10.25,"anom_C":0.02,"partial":false},{"month":"2020-12","mean_C":8.87,"n":5,"ok":true,"clim_C":9.04,"anom_C":-0.17,"partial":false},{"month":"2021-01","mean_C":8.67,"n":4,"ok":true,"clim_C":8.29,"anom_C":0.39,"partial":false},{"month":"2021-02","mean_C":7.8,"n":4,"ok":true,"clim_C":8.0,"anom_C":-0.19,"partial":false},{"month":"2021-03","mean_C":8.09,"n":5,"ok":true,"clim_C":8.29,"anom_C":-0.2,"partial":false},{"month":"2021-04","mean_C":10.45,"n":4,"ok":true,"clim_C":10.07,"anom_C":0.38,"partial":false},{"month":"2021-05","mean_C":11.86,"n":4,"ok":true,"clim_C":12.03,"anom_C":-0.17,"partial":false},{"month":"2021-06","mean_C":14.19,"n":5,"ok":true,"clim_C":13.51,"anom_C":0.68,"partial":false},{"month":"2021-07","mean_C":14.92,"n":5,"ok":true,"clim_C":14.83,"anom_C":0.1,"partial":false},{"month":"2021-08","mean_C":15.3,"n":4,"ok":true,"clim_C":15.8,"anom_C":-0.5,"partial":false},{"month":"2021-09","mean_C":13.56,"n":5,"ok":true,"clim_C":14.39,"anom_C":-0.83,"partial":false},{"month":"2021-10","mean_C":11.47,"n":4,"ok":true,"clim_C":12.03,"anom_C":-0.55,"partial":false},{"month":"2021-11","mean_C":10.64,"n":4,"ok":true,"clim_C":10.25,"anom_C":0.4,"partial":false},{"month":"2021-12","mean_C":9.11,"n":4,"ok":true,"clim_C":9.04,"anom_C":0.07,"partial":false},{"month":"2022-01","mean_C":7.7,"n":5,"ok":true,"clim_C":8.29,"anom_C":-0.59,"partial":false},{"month":"2022-02","mean_C":7.69,"n":4,"ok":true,"clim_C":8.0,"anom_C":-0.31,"partial":false},{"month":"2022-03","mean_C":8.19,"n":4,"ok":true,"clim_C":8.29,"anom_C":-0.1,"partial":false},{"month":"2022-04","mean_C":8.89,"n":4,"ok":true,"clim_C":10.07,"anom_C":-1.18,"partial":false},{"month":"2022-05","mean_C":11.06,"n":5,"ok":true,"clim_C":12.03,"anom_C":-0.97,"partial":false},{"month":"2022-06","mean_C":13.14,"n":4,"ok":true,"clim_C":13.51,"anom_C":-0.36,"partial":false},{"month":"2022-07","mean_C":14.98,"n":5,"ok":true,"clim_C":14.83,"anom_C":0.15,"partial":false},{"month":"2022-08","mean_C":16.22,"n":4,"ok":true,"clim_C":15.8,"anom_C":0.42,"partial":false},{"month":"2022-09","mean_C":14.09,"n":4,"ok":true,"clim_C":14.39,"anom_C":-0.3,"partial":false},{"month":"2022-10","mean_C":12.01,"n":4,"ok":true,"clim_C":12.03,"anom_C":-0.01,"partial":false},{"month":"2022-11","mean_C":8.99,"n":5,"ok":true,"clim_C":10.25,"anom_C":-1.26,"partial":false},{"month":"2022-12","mean_C":7.87,"n":4,"ok":true,"clim_C":9.04,"anom_C":-1.17,"partial":false},{"month":"2023-01","mean_C":7.68,"n":4,"ok":true,"clim_C":8.29,"anom_C":-0.61,"partial":false},{"month":"2023-02","mean_C":7.65,"n":4,"ok":true,"clim_C":8.0,"anom_C":-0.35,"partial":false},{"month":"2023-03","mean_C":7.63,"n":5,"ok":true,"clim_C":8.29,"anom_C":-0.66,"partial":false},{"month":"2023-04","mean_C":9.11,"n":4,"ok":true,"clim_C":10.07,"anom_C":-0.96,"partial":false},{"month":"2023-05","mean_C":12.38,"n":4,"ok":true,"clim_C":12.03,"anom_C":0.34,"partial":false},{"month":"2023-06","mean_C":13.23,"n":5,"ok":true,"clim_C":13.51,"anom_C":-0.28,"partial":false},{"month":"2023-07","mean_C":14.95,"n":5,"ok":true,"clim_C":14.83,"anom_C":0.12,"partial":false},{"month":"2023-08","mean_C":15.59,"n":4,"ok":true,"clim_C":15.8,"anom_C":-0.21,"partial":false},{"month":"2023-09","mean_C":14.11,"n":5,"ok":true,"clim_C":14.39,"anom_C":-0.28,"partial":false},{"month":"2023-10","mean_C":13.27,"n":4,"ok":true,"clim_C":12.03,"anom_C":1.24,"partial":false},{"month":"2023-11","mean_C":11.19,"n":4,"ok":true,"clim_C":10.25,"anom_C":0.94,"partial":false},{"month":"2023-12","mean_C":9.74,"n":5,"ok":true,"clim_C":9.04,"anom_C":0.69,"partial":false},{"month":"2024-01","mean_C":8.69,"n":4,"ok":true,"clim_C":8.29,"anom_C":0.4,"partial":false},{"month":"2024-02","mean_C":8.73,"n":4,"ok":true,"clim_C":8.0,"anom_C":0.73,"partial":false},{"month":"2024-03","mean_C":8.68,"n":5,"ok":true,"clim_C":8.29,"anom_C":0.39,"partial":false},{"month":"2024-04","mean_C":10.53,"n":4,"ok":true,"clim_C":10.07,"anom_C":0.46,"partial":false},{"month":"2024-05","mean_C":11.66,"n":4,"ok":true,"clim_C":12.03,"anom_C":-0.37,"partial":false},{"month":"2024-06","mean_C":13.37,"n":5,"ok":true,"clim_C":13.51,"anom_C":-0.14,"partial":false},{"month":"2024-07","mean_C":15.1,"n":5,"ok":true,"clim_C":14.83,"anom_C":0.27,"partial":false},{"month":"2024-08","mean_C":15.57,"n":4,"ok":true,"clim_C":15.8,"anom_C":-0.22,"partial":false},{"month":"2024-09","mean_C":14.11,"n":5,"ok":true,"clim_C":14.39,"anom_C":-0.28,"partial":false},{"month":"2024-10","mean_C":11.4,"n":4,"ok":true,"clim_C":12.03,"anom_C":-0.62,"partial":false},{"month":"2024-11","mean_C":10.47,"n":4,"ok":true,"clim_C":10.25,"anom_C":0.23,"partial":false},{"month":"2024-12","mean_C":9.2,"n":5,"ok":true,"clim_C":9.04,"anom_C":0.16,"partial":false},{"month":"2025-01","mean_C":8.4,"n":4,"ok":true,"clim_C":8.29,"anom_C":0.11,"partial":false},{"month":"2025-02","mean_C":7.7,"n":3,"ok":true,"clim_C":8.0,"anom_C":-0.29,"partial":false},{"month":"2025-03","mean_C":8.5,"n":5,"ok":true,"clim_C":8.29,"anom_C":0.21,"partial":false},{"month":"2025-04","mean_C":10.77,"n":4,"ok":true,"clim_C":10.07,"anom_C":0.7,"partial":false},{"month":"2025-05","mean_C":11.82,"n":5,"ok":true,"clim_C":12.03,"anom_C":-0.21,"partial":false},{"month":"2025-06","mean_C":13.43,"n":4,"ok":true,"clim_C":13.51,"anom_C":-0.07,"partial":false},{"month":"2025-07","mean_C":14.46,"n":5,"ok":true,"clim_C":14.83,"anom_C":-0.37,"partial":false},{"month":"2025-08","mean_C":15.89,"n":4,"ok":true,"clim_C":15.8,"anom_C":0.1,"partial":false},{"month":"2025-09","mean_C":14.4,"n":5,"ok":true,"clim_C":14.39,"anom_C":0.01,"partial":false},{"month":"2025-10","mean_C":11.73,"n":4,"ok":true,"clim_C":12.03,"anom_C":-0.29,"partial":false},{"month":"2025-11","mean_C":10.66,"n":4,"ok":true,"clim_C":10.25,"anom_C":0.41,"partial":false},{"month":"2025-12","mean_C":9.91,"n":5,"ok":true,"clim_C":9.04,"anom_C":0.87,"partial":false},{"month":"2026-01","mean_C":8.65,"n":4,"ok":true,"clim_C":8.29,"anom_C":0.36,"partial":false},{"month":"2026-02","mean_C":8.37,"n":4,"ok":true,"clim_C":8.0,"anom_C":0.38,"partial":false},{"month":"2026-03","mean_C":8.82,"n":5,"ok":true,"clim_C":8.29,"anom_C":0.53,"partial":false},{"month":"2026-04","mean_C":10.68,"n":4,"ok":true,"clim_C":10.07,"anom_C":0.61,"partial":false},{"month":"2026-05","mean_C":12.9,"n":4,"ok":true,"clim_C":12.03,"anom_C":0.86,"partial":false},{"month":"2026-06","mean_C":13.44,"n":5,"ok":true,"clim_C":13.51,"anom_C":-0.07,"partial":false},{"month":"2026-07","mean_C":14.12,"n":5,"ok":true,"clim_C":14.83,"anom_C":-0.71,"partial":false},{"month":"2026-08","mean_C":15.8,"n":10,"ok":true,"clim_C":15.8,"anom_C":0.01,"partial":true}],"climatology":[{"calendar_month":1,"clim_C":8.29,"std_C":0.44,"n_years":7},{"calendar_month":2,"clim_C":8.0,"std_C":0.41,"n_years":7},{"calendar_month":3,"clim_C":8.29,"std_C":0.41,"n_years":7},{"calendar_month":4,"clim_C":10.07,"std_C":0.77,"n_years":7},{"calendar_month":5,"clim_C":12.03,"std_C":0.62,"n_years":7},{"calendar_month":6,"clim_C":13.51,"std_C":0.36,"n_years":7},{"calendar_month":7,"clim_C":14.83,"std_C":0.4,"n_years":7},{"calendar_month":8,"clim_C":15.8,"std_C":0.3,"n_years":8},{"calendar_month":9,"clim_C":14.39,"std_C":0.63,"n_years":7},{"calendar_month":10,"clim_C":12.03,"std_C":0.71,"n_years":7},{"calendar_month":11,"clim_C":10.25,"std_C":0.75,"n_years":7},{"calendar_month":12,"clim_C":9.04,"std_C":0.69,"n_years":7}],"anomaly_thresholds":{"90":0.7,"95":0.84,"99":1.01}}}],"properties":{"title":"Satellite SST history at Folger Passage","units":"degree_C","record":["2019-07-22","2026-08-26"],"baseline":"2019-07-22 to 2026-08-26, 7-8 years per calendar month","baseline_caveat":"A climatology over 6-8 years, not the 30 the WMO standard assumes. Treat anomalies as indicative of this record, not of the climate.","sampling":"Backfilled years are sampled weekly (~4 values per month); days from the rolling archive are daily (~30). Means are unbiased either way, but precision differs -- read n alongside each month.","cell_caveat":"One 5.5 x 3.7 km cell covers both Folger stations, which are 611 m apart. The marker sits at the cell centre, on neither instrument.","depth_caveat":"A skin-temperature analysis of the surface. The stations sit at 23 m and ~96 m; this is not a proxy for what they record.","source_caveat":"Near-real-time L4 analysis, about two days behind. Every step is labelled 'final' because the product publishes once -- that is not a quality tier.","plot_a":"daily -- raw SST, weekly through the record, last 7 days daily","plot_b":"monthly -- anom_C against clim_C, thresholds in anomaly_thresholds"}}